[{"OBJECT_NAME":"STARLINK-3503","OBJECT_ID":"2022-022P","EPOCH":"2026-03-09T02:28:09.690816","MEAN_MOTION":15.08836556,"ECCENTRICITY":0.00013821,"INCLINATION":53.2178,"RA_OF_ASC_NODE":11.7545,"ARG_OF_PERICENTER":99.4768,"MEAN_ANOMALY":260.6381,"EPHEMERIS_TYPE":0,"CLASSIFICATION_TYPE":"U","NORAD_CAT_ID":51865,"ELEMENT_SET_NO":999,"REV_AT_EPOCH":22302,"BSTAR":1.3921816e-5,"MEAN_MOTION_DOT":-6.6e-7,"MEAN_MOTION_DDOT":0},{"OBJECT_NAME":"DISKSAT A","OBJECT_ID":"2025-305D","EPOCH":"2026-03-09T13:08:58.223040","MEAN_MOTION":15.07741062,"ECCENTRICITY":0.0004082,"INCLINATION":45.0023,"RA_OF_ASC_NODE":251.6019,"ARG_OF_PERICENTER":318.1929,"MEAN_ANOMALY":41.8634,"EPHEMERIS_TYPE":0,"CLASSIFICATION_TYPE":"U","NORAD_CAT_ID":67222,"ELEMENT_SET_NO":999,"REV_AT_EPOCH":1226,"BSTAR":0.00090452,"MEAN_MOTION_DOT":0.00013824,"MEAN_MOTION_DDOT":0}]
