STARLINK-3503           
1 51865U 22022P   26068.10288994 -.00000066  00000+0  13922-4 0  9999
2 51865  53.2178  11.7545 0001382  99.4768 260.6381 15.08836556223025
DISKSAT A               
1 67222U 25305D   26068.54789610  .00013824  00000+0  90452-3 0  9996
2 67222  45.0023 251.6019 0004082 318.1929  41.8634 15.07741062 12266
